[{"OBJECT_NAME":"STARLINK-32489","OBJECT_ID":"2024-204V","EPOCH":"2026-03-09T10:42:51.625440","MEAN_MOTION":15.30194091,"ECCENTRICITY":0.00014271,"INCLINATION":53.1582,"RA_OF_ASC_NODE":127.97,"ARG_OF_PERICENTER":94.4203,"MEAN_ANOMALY":265.6961,"EPHEMERIS_TYPE":0,"CLASSIFICATION_TYPE":"U","NORAD_CAT_ID":61893,"ELEMENT_SET_NO":999,"REV_AT_EPOCH":7505,"BSTAR":4.7662528e-5,"MEAN_MOTION_DOT":1.052e-5,"MEAN_MOTION_DDOT":0},{"OBJECT_NAME":"SCS-01 H","OBJECT_ID":"2025-100H","EPOCH":"2026-03-09T23:19:05.376864","MEAN_MOTION":15.31767757,"ECCENTRICITY":0.00071581,"INCLINATION":97.3749,"RA_OF_ASC_NODE":145.8085,"ARG_OF_PERICENTER":277.8492,"MEAN_ANOMALY":82.1937,"EPHEMERIS_TYPE":0,"CLASSIFICATION_TYPE":"U","NORAD_CAT_ID":63989,"ELEMENT_SET_NO":999,"REV_AT_EPOCH":4566,"BSTAR":0.0011436254,"MEAN_MOTION_DOT":0.00035149,"MEAN_MOTION_DDOT":0}]
